{
  "type": "FeatureCollection",
  "features": [
    {
      "type": "Feature",
      "properties": {
        "norad_id": 66842,
        "name": "STARLINK-35769",
        "group": "last-30-days",
        "lat": -69.20867927955202,
        "lon": 90.0810852258479,
        "alt_km": 413.7181383206844,
        "timestamp": "2025-12-25T09:48:51.005923+00:00",
        "meta_object_name": "STARLINK-35769",
        "meta_object_id": "2025-280X",
        "meta_epoch": "2025-12-24T23:21:08.878752",
        "meta_mean_motion": 15.52553506,
        "meta_eccentricity": 0.0002905,
        "meta_inclination": 70.0008,
        "meta_ra_of_asc_node": 164.86,
        "meta_arg_of_pericenter": 277.0344,
        "meta_mean_anomaly": 83.0513,
        "meta_ephemeris_type": 0,
        "meta_classification_type": "U",
        "meta_norad_cat_id": 66842,
        "meta_element_set_no": 999,
        "meta_rev_at_epoch": 483,
        "meta_bstar": 0.0014035,
        "meta_mean_motion_dot": 0.00087236,
        "meta_mean_motion_ddot": 0,
        "tle_line1": "1 66842U 25280X   25358.97301943  .00087236  00000+0  14035-2 0  9992",
        "tle_line2": "2 66842  70.0008 164.8600 0002905 277.0344  83.0513 15.52553506  4833"
      },
      "geometry": {
        "type": "Point",
        "coordinates": [
          90.0810852258479,
          -69.20867927955202
        ]
      }
    },
    {
      "type": "Feature",
      "properties": {
        "norad_id": 66843,
        "name": "STARLINK-35997",
        "group": "last-30-days",
        "lat": -67.89245107221035,
        "lon": 99.94562789746112,
        "alt_km": 413.3249291396569,
        "timestamp": "2025-12-25T09:48:51.005933+00:00",
        "meta_object_name": "STARLINK-35997",
        "meta_object_id": "2025-280Y",
        "meta_epoch": "2025-12-24T23:20:09.195360",
        "meta_mean_motion": 15.52555254,
        "meta_eccentricity": 0.0003558,
        "meta_inclination": 70.001,
        "meta_ra_of_asc_node": 164.8565,
        "meta_arg_of_pericenter": 274.5946,
        "meta_mean_anomaly": 85.4834,
        "meta_ephemeris_type": 0,
        "meta_classification_type": "U",
        "meta_norad_cat_id": 66843,
        "meta_element_set_no": 999,
        "meta_rev_at_epoch": 483,
        "meta_bstar": 0.00107,
        "meta_mean_motion_dot": 0.00066299,
        "meta_mean_motion_ddot": 0,
        "tle_line1": "1 66843U 25280Y   25358.97232865  .00066299  00000+0  10700-2 0  9990",
        "tle_line2": "2 66843  70.0010 164.8565 0003558 274.5946  85.4834 15.52555254  4836"
      },
      "geometry": {
        "type": "Point",
        "coordinates": [
          99.94562789746112,
          -67.89245107221035
        ]
      }
    },
    {
      "type": "Feature",
      "properties": {
        "norad_id": 66844,
        "name": "STARLINK-36073",
        "group": "last-30-days",
        "lat": -68.63104442710689,
        "lon": 95.09669826415161,
        "alt_km": 413.5313437260829,
        "timestamp": "2025-12-25T09:48:51.005945+00:00",
        "meta_object_name": "STARLINK-36073",
        "meta_object_id": "2025-280Z",
        "meta_epoch": "2025-12-24T23:20:39.158016",
        "meta_mean_motion": 15.52546193,
        "meta_eccentricity": 0.0003268,
        "meta_inclination": 70.0009,
        "meta_ra_of_asc_node": 164.8585,
        "meta_arg_of_pericenter": 275.0662,
        "meta_mean_anomaly": 85.0152,
        "meta_ephemeris_type": 0,
        "meta_classification_type": "U",
        "meta_norad_cat_id": 66844,
        "meta_element_set_no": 999,
        "meta_rev_at_epoch": 480,
        "meta_bstar": 0.0011634,
        "meta_mean_motion_dot": 0.0007213,
        "meta_mean_motion_ddot": 0,
        "tle_line1": "1 66844U 25280Z   25358.97267544  .00072130  00000+0  11634-2 0  9991",
        "tle_line2": "2 66844  70.0009 164.8585 0003268 275.0662  85.0152 15.52546193  4804"
      },
      "geometry": {
        "type": "Point",
        "coordinates": [
          95.09669826415161,
          -68.63104442710689
        ]
      }
    },
    {
      "type": "Feature",
      "properties": {
        "norad_id": 66845,
        "name": "STARLINK-36068",
        "group": "last-30-days",
        "lat": -64.99075946902492,
        "lon": 112.32764259708054,
        "alt_km": 413.5364542199859,
        "timestamp": "2025-12-25T09:48:51.005955+00:00",
        "meta_object_name": "STARLINK-36068",
        "meta_object_id": "2025-280AA",
        "meta_epoch": "2025-12-24T23:18:40.608576",
        "meta_mean_motion": 15.52551578,
        "meta_eccentricity": 0.0003215,
        "meta_inclination": 70.0011,
        "meta_ra_of_asc_node": 164.8525,
        "meta_arg_of_pericenter": 275.2354,
        "meta_mean_anomaly": 84.8466,
        "meta_ephemeris_type": 0,
        "meta_classification_type": "U",
        "meta_norad_cat_id": 66845,
        "meta_element_set_no": 999,
        "meta_rev_at_epoch": 483,
        "meta_bstar": 0.0012343,
        "meta_mean_motion_dot": 0.0007659,
        "meta_mean_motion_ddot": 0,
        "tle_line1": "1 66845U 25280AA  25358.97130334  .00076590  00000+0  12343-2 0  9990",
        "tle_line2": "2 66845  70.0011 164.8525 0003215 275.2354  84.8466 15.52551578  4835"
      },
      "geometry": {
        "type": "Point",
        "coordinates": [
          112.32764259708054,
          -64.99075946902492
        ]
      }
    },
    {
      "type": "Feature",
      "properties": {
        "norad_id": 66846,
        "name": "STARLINK-36055",
        "group": "last-30-days",
        "lat": -67.03091498797411,
        "lon": 104.41774695532399,
        "alt_km": 413.5002369569147,
        "timestamp": "2025-12-25T09:48:51.005967+00:00",
        "meta_object_name": "STARLINK-36055",
        "meta_object_id": "2025-280AB",
        "meta_epoch": "2025-12-24T23:19:39.877248",
        "meta_mean_motion": 15.52555752,
        "meta_eccentricity": 0.0003166,
        "meta_inclination": 70.0008,
        "meta_ra_of_asc_node": 164.8552,
        "meta_arg_of_pericenter": 275.5596,
        "meta_mean_anomaly": 84.523,
        "meta_ephemeris_type": 0,
        "meta_classification_type": "U",
        "meta_norad_cat_id": 66846,
        "meta_element_set_no": 999,
        "meta_rev_at_epoch": 483,
        "meta_bstar": 0.0015723,
        "meta_mean_motion_dot": 0.00097892,
        "meta_mean_motion_ddot": 0,
        "tle_line1": "1 66846U 25280AB  25358.97198932  .00097892  00000+0  15723-2 0  9992",
        "tle_line2": "2 66846  70.0008 164.8552 0003166 275.5596  84.5230 15.52555752  4832"
      },
      "geometry": {
        "type": "Point",
        "coordinates": [
          104.41774695532399,
          -67.03091498797411
        ]
      }
    },
    {
      "type": "Feature",
      "properties": {
        "norad_id": 66847,
        "name": "STARLINK-36061",
        "group": "last-30-days",
        "lat": -66.06950012736078,
        "lon": 108.50077087540554,
        "alt_km": 413.52931737990366,
        "timestamp": "2025-12-25T09:48:51.005979+00:00",
        "meta_object_name": "STARLINK-36061",
        "meta_object_id": "2025-280AC",
        "meta_epoch": "2025-12-24T23:19:10.262784",
        "meta_mean_motion": 15.52547051,
        "meta_eccentricity": 0.0003255,
        "meta_inclination": 70.001,
        "meta_ra_of_asc_node": 164.854,
        "meta_arg_of_pericenter": 272.554,
        "meta_mean_anomaly": 87.5274,
        "meta_ephemeris_type": 0,
        "meta_classification_type": "U",
        "meta_norad_cat_id": 66847,
        "meta_element_set_no": 999,
        "meta_rev_at_epoch": 483,
        "meta_bstar": 0.0013063,
        "meta_mean_motion_dot": 0.00081101,
        "meta_mean_motion_ddot": 0,
        "tle_line1": "1 66847U 25280AC  25358.97164656  .00081101  00000+0  13063-2 0  9990",
        "tle_line2": "2 66847  70.0010 164.8540 0003255 272.5540  87.5274 15.52547051  4832"
      },
      "geometry": {
        "type": "Point",
        "coordinates": [
          108.50077087540554,
          -66.06950012736078
        ]
      }
    },
    {
      "type": "Feature",
      "properties": {
        "norad_id": 66848,
        "name": "STARLINK-36091",
        "group": "last-30-days",
        "lat": 36.1297498613984,
        "lon": 97.15236395894158,
        "alt_km": 401.6550339712958,
        "timestamp": "2025-12-25T09:48:51.005990+00:00",
        "meta_object_name": "STARLINK-36091",
        "meta_object_id": "2025-281A",
        "meta_epoch": "2025-12-25T04:00:01.998720",
        "meta_mean_motion": 15.54524621,
        "meta_eccentricity": 0.0001037,
        "meta_inclination": 43.0003,
        "meta_ra_of_asc_node": 47.0047,
        "meta_arg_of_pericenter": 278.8392,
        "meta_mean_anomaly": 224.2892,
        "meta_ephemeris_type": 0,
        "meta_classification_type": "U",
        "meta_norad_cat_id": 66848,
        "meta_element_set_no": 999,
        "meta_rev_at_epoch": 338,
        "meta_bstar": -0.033427,
        "meta_mean_motion_dot": -0.02020336,
        "meta_mean_motion_ddot": 0,
        "tle_line1": "1 66848U 25281A   25359.16668980 -.02020336  00000+0 -33427-1 0  9995",
        "tle_line2": "2 66848  43.0003  47.0047 0001037 278.8392 224.2892 15.54524621  3384"
      },
      "geometry": {
        "type": "Point",
        "coordinates": [
          97.15236395894158,
          36.1297498613984
        ]
      }
    }
  ]
}